CCSDS_OMM_VERS,COMMENT,CREATION_DATE,ORIGINATOR,OBJECT_NAME,OBJECT_ID,CENTER_NAME,REF_FRAME,TIME_SYSTEM,MEAN_ELEMENT_THEORY,EPOCH,MEAN_MOTION,ECCENTRICITY,INCLINATION,RA_OF_ASC_NODE,ARG_OF_PERICENTER,MEAN_ANOMALY,EPHEMERIS_TYPE,CLASSIFICATION_TYPE,NORAD_CAT_ID,ELEMENT_SET_NO,REV_AT_EPOCH,BSTAR,MEAN_MOTION_DOT,MEAN_MOTION_DDOT,SEMIMAJOR_AXIS,PERIOD,APOAPSIS,PERIAPSIS,OBJECT_TYPE,RCS_SIZE,COUNTRY_CODE,LAUNCH_DATE,SITE,DECAY_DATE,FILE,GP_ID,TLE_LINE0,TLE_LINE1,TLE_LINE2
3.0,GENERATED VIA SPACE-TRACK.ORG API,2004-05-27T14:23:57,18 SPCS,COSMOS 1701,1985-105A,EARTH,TEME,UTC,SGP4,2001-05-10T13:30:31.002912,15.82974501,0.0371998,62.311,233.9728,213.6207,276.7765,0,U,16235,999,6593,0.0012216,0.99999999,3.3357e-06,6700.175,90.967,571.285,72.795,PAYLOAD,LARGE,CIS,1985-11-09,PKMTR,2001-05-11,5835,146345,0 COSMOS 1701,1 16235U 85105A   01130.56285883 +.99999999 +33357-5 +12216-2 0  9998,2 16235 062.3110 233.9728 0371998 213.6207 276.7765 15.82974501065939
3.0,GENERATED VIA SPACE-TRACK.ORG API,2004-08-16T23:21:32,18 SPCS,COSMOS 1220 DEB,1980-089BV,EARTH,TEME,UTC,SGP4,1985-09-09T13:34:52.013855,16.16409657,0.001268,64.9376,261.9769,244.7727,114.7392,0,U,14833,999,14496,0.0061801,0.09276304,7.0337e-06,6607.459,89.086,237.702,220.946,DEBRIS,SMALL,CIS,1980-11-04,TTMTR,1985-09-09,34457,14401875,0 COSMOS 1220 DEB,1 14833U 80089 BV 85252.56587979  .09276304 +70337-5 +61801-2 0  9996,2 14833 064.9376 261.9769 0012680 244.7727 114.7392 16.16409657144962
3.0,GENERATED VIA SPACE-TRACK.ORG API,2022-05-03T20:17:02,18 SPCS,COSMOS 1408 DEB,1982-092BHV,EARTH,TEME,UTC,SGP4,2022-05-02T22:48:06.943104,16.32088954,0.0013456,82.5626,309.3895,294.3296,65.6593,0,U,51399,999,1729,0.002288,0.12443208,-1.2569e-06,6565.069,88.23,195.768,178.1,DEBRIS,SMALL,CIS,1982-09-16,PKMTR,2022-05-03,3427159,202601783,0 COSMOS 1408 DEB,1 51399U 82092BHV 22122.95008036  .12443208 -12569-5  22880-2 0  9993,2 51399  82.5626 309.3895 0013456 294.3296  65.6593 16.32088954 17298
3.0,GENERATED VIA SPACE-TRACK.ORG API,2004-08-15T23:47:05,18 SPCS,SL-8 R/B,1972-088B,EARTH,TEME,UTC,SGP4,1980-07-17T12:53:50.629055,16.29527664,0.0010221,73.9808,259.6624,259.653,100.4118,0,U,6273,999,42850,6.2e-07,0.02917649,9.881e-08,6571.95,88.369,200.532,187.098,ROCKET BODY,LARGE,CIS,1972-11-03,PKMTR,1980-07-19,34140,11386731,0 SL-8 R/B,1 06273U 72088  B 80199.53739154  .02917649 +09881-6 +00620-4 0  9999,2 06273 073.9808 259.6624 0010221 259.6530 100.4118 16.29527664428507
3.0,GENERATED VIA SPACE-TRACK.ORG API,2022-06-21T06:26:12,18 SPCS,GT-1,1998-067TH,EARTH,TEME,UTC,SGP4,2022-06-18T19:50:33.398016,16.34843168,0.0014082,51.6165,311.4117,299.7165,60.1723,0,U,51510,999,2129,0.001347,0.1071683,1.2371e-05,6557.693,88.082,188.793,170.324,PAYLOAD,MEDIUM,US,1998-11-20,TTMTR,2022-06-19,3498418,206517069,0 GT-1,1 51510U 98067TH  22169.82677544  .10716830  12371-4  13470-2 0  9996,2 51510  51.6165 311.4117 0014082 299.7165  60.1723 16.34843168 21297
3.0,GENERATED VIA SPACE-TRACK.ORG API,2004-08-17T15:26:57,18 SPCS,COSMOS 249 DEB *,1968-091BW,EARTH,TEME,UTC,SGP4,2000-05-10T12:22:04.872287,16.07107542,0.0017747,62.8035,279.2224,249.3342,112.4045,0,U,3962,999,58008,0.0091929,0.04839582,0.072399,6632.931,89.601,266.567,243.024,DEBRIS,SMALL,CIS,1968-10-20,TTMTR,2000-05-10,35588,33413369,0 COSMOS 249 DEB *,1 03962U 68091BW  00131.51533417 +.04839582 +72399-1 +91929-2 0  9990,2 03962 062.8035 279.2224 0017747 249.3342 112.4045 16.07107542580088
3.0,GENERATED VIA SPACE-TRACK.ORG API,2014-10-10T22:29:31,18 SPCS,COSMOS 2251 DEB,1993-036VT,EARTH,TEME,UTC,SGP4,2014-10-10T17:33:40.997663,16.03209003,0.0023785,73.9925,16.0235,332.6368,153.8384,0,U,34581,999,30041,0.037118,0.1205795,0.79407,6643.679,89.819,281.346,249.742,DEBRIS,SMALL,CIS,1993-06-16,PKMTR,2014-10-10,1760257,97218476,0 COSMOS 2251 DEB,1 34581U 93036VT  14283.73172451  .12057950  79407+0  37118-1 0  9996,2 34581 073.9925 016.0235 0023785 332.6368 153.8384 16.03209003300415
3.0,GENERATED VIA SPACE-TRACK.ORG API,2004-08-16T23:25:47,18 SPCS,DELTA 1 R/B,1987-029B,EARTH,TEME,UTC,SGP4,1987-04-23T15:52:41.433024,16.42594377,0.0011139,26.8498,68.68,281.3261,78.6587,0,U,17707,999,541,0.00041669,0.08676175,-5.328e-05,6537.051,87.666,166.197,151.634,ROCKET BODY,LARGE,US,1987-03-20,AFETR,1987-04-23,34542,15609624,0 DELTA 1 R/B,1 17707U 87029  B 87113.66159066  .08676175 -53280-4 +41669-3 0  9999,2 17707 026.8498 068.6800 0011139 281.3261 078.6587 16.42594377005416
3.0,GENERATED VIA SPACE-TRACK.ORG API,2022-02-18T19:29:47,18 SPCS,COSMOS 1408 DEB,1982-092BRG,EARTH,TEME,UTC,SGP4,2022-02-18T08:58:12.335232,16.23833699,0.0016414,82.52,26.7026,165.3145,194.8626,0,U,51691,999,180,0.0082354,0.21574459,-1.2718e-06,6587.3,88.679,219.978,198.353,DEBRIS,,,,,2022-02-23,3306500,196297067,0 COSMOS 1408 DEB,1 51691U 82092BRG 22049.37375388  .21574459 -12718-5  82354-2 0  9990,2 51691  82.5200  26.7026 0016414 165.3145 194.8626 16.23833699  1800
3.0,GENERATED VIA SPACE-TRACK.ORG API,2004-08-16T23:15:23,18 SPCS,CZ-2B DEB,1981-093K,EARTH,TEME,UTC,SGP4,1981-11-15T10:01:49.689408,15.87007999,0.0225156,59.7522,77.3707,215.6975,167.1077,0,U,12958,999,275,3.432e-05,0.09813364,8.75e-08,6688.817,90.736,461.285,160.08,DEBRIS,,,,,1981-11-16,34334,12290184,0 CZ-2B DEB,1 12958U 81093  K 81319.41793622  .09813364 +00875-5 +03432-3 0  9996,2 12958 059.7522 077.3707 0225156 215.6975 167.1077 15.87007999002752
3.0,GENERATED VIA SPACE-TRACK.ORG API,2004-05-29T18:14:03,18 SPCS,CZ-4 DEB,1999-057GN,EARTH,TEME,UTC,SGP4,2003-02-17T10:22:13.560095,16.22276427,0.0024841,98.3661,165.0224,321.4796,38.4751,0,U,26305,999,15677,0.013707,0.32989459,3.3161e-06,6591.519,88.764,229.758,197.01,DEBRIS,SMALL,PRC,1999-10-14,TSC,2003-02-17,7203,4756749,0 CZ-4 DEB,1 26305U 99057GN  03048.43210139 +.32989459 +33161-5 +13707-1 0  9991,2 26305 098.3661 165.0224 0024841 321.4796 038.4751 16.22276427156775
3.0,GENERATED VIA SPACE-TRACK.ORG API,2005-04-22T16:12:26,18 SPCS,SL-6 DEB,1972-025E,EARTH,TEME,UTC,SGP4,1972-04-08T23:56:42.190655,16.10555687,0.010281,65.5074,106.9682,24.705,335.895,0,U,5931,999,66,0.0,0.04712102,0.0,6623.46,89.41,313.421,177.229,DEBRIS,,,,,1972-04-10,128520,41834668,0 SL-6 DEB,1 05931U 72025  E 72099.99771054  .04712102 +00000-0 +00000-0 0  9990,2 05931 065.5074 106.9682 0102810 024.7050 335.8950 16.10555687000668
3.0,GENERATED VIA SPACE-TRACK.ORG API,2004-08-15T23:40:50,18 SPCS,SL-4 R/B,1977-074B,EARTH,TEME,UTC,SGP4,1977-08-28T08:54:35.998271,16.46072388,5.2e-05,62.7621,14.3519,96.0566,274.8008,0,U,10173,999,399,0.0,0.14001162,0.0,6527.839,87.48,150.044,149.365,ROCKET BODY,,,,,1977-08-28,34015,10109057,0 SL-4 R/B,1 10173U 77074  B 77240.37124998  .14001162 +00000-0 +00000-0 0  9995,2 10173 062.7621 014.3519 0000520 096.0566 274.8008 16.46072388003995
3.0,GENERATED VIA SPACE-TRACK.ORG API,2004-05-28T19:01:11,18 SPCS,SL-12 R/B(AUX MOTOR),2001-045F,EARTH,TEME,UTC,SGP4,2002-04-19T16:18:24.982848,14.3747073,0.0943271,46.8334,190.8074,82.921,40.7133,0,U,26941,999,642,0.0019198,0.99999999,8.9381e-06,7145.008,100.175,1440.841,92.906,ROCKET BODY,MEDIUM,CIS,2001-10-06,TTMTR,2002-04-20,6668,2584408,0 SL-12 R/B(AUX MOTOR),1 26941U 01045F   02109.67945582 +.99999999 +89381-5 +19198-2 0  9996,2 26941 046.8334 190.8074 0943271 082.9210 040.7133 14.37470730006425
3.0,GENERATED VIA SPACE-TRACK.ORG API,2004-08-17T15:28:30,18 SPCS,CZ-4 DEB,1999-057EU,EARTH,TEME,UTC,SGP4,2001-04-06T06:41:24.400896,16.10058927,0.0036193,98.6649,223.1882,268.9016,90.1698,0,U,26258,999,5718,0.019071,0.19691832,3.1319e-06,6624.822,89.437,270.665,222.71,DEBRIS,,,,,2001-04-06,35619,36420407,0 CZ-4 DEB,1 26258U 99057EU  01096.27875464 +.19691832 +31319-5 +19071-1 0  9992,2 26258 098.6649 223.1882 0036193 268.9016 090.1698 16.10058927057180
3.0,GENERATED VIA SPACE-TRACK.ORG API,2004-08-17T15:01:09,18 SPCS,COBE DEB,1989-089CH,EARTH,TEME,UTC,SGP4,1995-03-19T01:03:19.697471,14.63685508,0.0066318,98.957,115.7636,120.7639,231.5139,0,U,23086,999,6140,0.038889,0.00215323,0.0,7059.44,98.381,728.122,634.488,DEBRIS,SMALL,US,1989-11-18,AFWTR,1995-07-26,35072,21717325,0 COBE DEB,1 23086U 89089 CH 95078.04397798  .00215323 +00000-0 +38889-1 0  9992,2 23086 098.9570 115.7636 0066318 120.7639 231.5139 14.63685508061401
3.0,GENERATED VIA SPACE-TRACK.ORG API,2005-06-09T11:44:05,18 SPCS,ARIANE 1 DEB,1986-019VB,EARTH,TEME,UTC,SGP4,1991-10-14T04:36:45.376703,15.65709254,0.0017174,98.016,68.2322,302.0981,57.6792,0,U,19510,999,16843,0.0071842,0.00729042,0.0,6749.341,91.971,382.797,359.614,DEBRIS,SMALL,FR,1986-02-22,FRGUI,1991-10-25,145815,49554030,0 ARIANE 1 DEB,1 19510U 86019 VB 91287.19219186  .00729042 +00000-0 +71842-2 0  9992,2 19510 098.0160 068.2322 0017174 302.0981 057.6792 15.65709254168430
3.0,GENERATED VIA SPACE-TRACK.ORG API,2004-08-16T23:23:02,18 SPCS,COSMOS 1628 DEB,1985-012H,EARTH,TEME,UTC,SGP4,1985-03-26T08:49:24.511584,16.10811944,0.0022785,72.8777,191.3417,294.031,65.1156,0,U,15573,999,753,0.0093757,0.09669011,1.435e-06,6622.758,89.395,259.713,229.533,DEBRIS,,,,,1985-03-26,34487,14447688,0 COSMOS 1628 DEB,1 15573U 85012  H 85085.36764481  .09669011 +14350-5 +93757-2 0  9995,2 15573 072.8777 191.3417 0022785 294.0310 065.1156 16.10811944007534
3.0,GENERATED VIA SPACE-TRACK.ORG API,2004-08-17T15:28:00,18 SPCS,PEGASUS DEB,1994-029SH,EARTH,TEME,UTC,SGP4,2000-12-28T07:29:26.287583,16.1186206,0.0014553,81.9549,41.461,100.3846,260.0163,0,U,24429,999,24166,0.025104,0.5110289,0.0,6619.881,89.337,251.38,232.112,DEBRIS,SMALL,US,1994-05-19,AFWTR,2000-12-30,35609,35483089,0 PEGASUS DEB,1 24429U 94029SH  00363.31210981 +.51102890 +00000-0 +25104-1 0  9991,2 24429 081.9549 041.4610 0014553 100.3846 260.0163 16.11862060241663
